{
  "type": "FeatureCollection",
  "features": [
    {
      "type": "Feature",
      "properties": {
        "norad_id": 34814,
        "name": "COSMOS 2251 DEB",
        "group": "cosmos-2251-debris",
        "lat": 7.757161205266396,
        "lon": 145.56714967357595,
        "alt_km": 742.1589749039413,
        "timestamp": "2025-12-11T10:53:16.285166+00:00",
        "meta_object_name": "COSMOS 2251 DEB",
        "meta_object_id": "1993-036ABD",
        "meta_epoch": "2025-12-11T05:08:08.589120",
        "meta_mean_motion": 14.36882836,
        "meta_eccentricity": 0.0056325,
        "meta_inclination": 73.8959,
        "meta_ra_of_asc_node": 328.2668,
        "meta_arg_of_pericenter": 218.0941,
        "meta_mean_anomaly": 154.8989,
        "meta_ephemeris_type": 0,
        "meta_classification_type": "U",
        "meta_norad_cat_id": 34814,
        "meta_element_set_no": 999,
        "meta_rev_at_epoch": 87311,
        "meta_bstar": 0.0012199,
        "meta_mean_motion_dot": 3.649e-05,
        "meta_mean_motion_ddot": 0,
        "tle_line1": "1 34814U 93036ABD 25345.21398830  .00003649  00000+0  12199-2 0  9999",
        "tle_line2": "2 34814  73.8959 328.2668 0056325 218.0941 154.8989 14.36882836873117"
      },
      "geometry": {
        "type": "Point",
        "coordinates": [
          145.56714967357595,
          7.757161205266396
        ]
      }
    },
    {
      "type": "Feature",
      "properties": {
        "norad_id": 34815,
        "name": "COSMOS 2251 DEB",
        "group": "cosmos-2251-debris",
        "lat": 41.714912232975486,
        "lon": 49.55049462288911,
        "alt_km": 672.2936774286254,
        "timestamp": "2025-12-11T10:53:16.285177+00:00",
        "meta_object_name": "COSMOS 2251 DEB",
        "meta_object_id": "1993-036ABE",
        "meta_epoch": "2025-12-11T03:46:30.732096",
        "meta_mean_motion": 14.78278256,
        "meta_eccentricity": 0.005887,
        "meta_inclination": 74.0447,
        "meta_ra_of_asc_node": 244.9077,
        "meta_arg_of_pericenter": 314.3656,
        "meta_mean_anomaly": 45.2703,
        "meta_ephemeris_type": 0,
        "meta_classification_type": "U",
        "meta_norad_cat_id": 34815,
        "meta_element_set_no": 999,
        "meta_rev_at_epoch": 88604,
        "meta_bstar": 0.0014142,
        "meta_mean_motion_dot": 0.00010555,
        "meta_mean_motion_ddot": 0,
        "tle_line1": "1 34815U 93036ABE 25345.15730014  .00010555  00000+0  14142-2 0  9991",
        "tle_line2": "2 34815  74.0447 244.9077 0058870 314.3656  45.2703 14.78278256886045"
      },
      "geometry": {
        "type": "Point",
        "coordinates": [
          49.55049462288911,
          41.714912232975486
        ]
      }
    },
    {
      "type": "Feature",
      "properties": {
        "norad_id": 34816,
        "name": "COSMOS 2251 DEB",
        "group": "cosmos-2251-debris",
        "lat": -66.91617764819567,
        "lon": 102.51415946355068,
        "alt_km": 976.015723728191,
        "timestamp": "2025-12-11T10:53:16.285187+00:00",
        "meta_object_name": "COSMOS 2251 DEB",
        "meta_object_id": "1993-036ABF",
        "meta_epoch": "2025-12-11T05:05:32.917920",
        "meta_mean_motion": 13.58314937,
        "meta_eccentricity": 0.0373498,
        "meta_inclination": 73.8863,
        "meta_ra_of_asc_node": 145.6144,
        "meta_arg_of_pericenter": 210.3453,
        "meta_mean_anomaly": 331.9387,
        "meta_ephemeris_type": 0,
        "meta_classification_type": "U",
        "meta_norad_cat_id": 34816,
        "meta_element_set_no": 999,
        "meta_rev_at_epoch": 82762,
        "meta_bstar": 0.0017109,
        "meta_mean_motion_dot": 1.937e-05,
        "meta_mean_motion_ddot": 0,
        "tle_line1": "1 34816U 93036ABF 25345.21218655  .00001937  00000+0  17109-2 0  9991",
        "tle_line2": "2 34816  73.8863 145.6144 0373498 210.3453 331.9387 13.58314937827629"
      },
      "geometry": {
        "type": "Point",
        "coordinates": [
          102.51415946355068,
          -66.91617764819567
        ]
      }
    },
    {
      "type": "Feature",
      "properties": {
        "norad_id": 34818,
        "name": "COSMOS 2251 DEB",
        "group": "cosmos-2251-debris",
        "lat": -59.28004669345198,
        "lon": 148.10293373430346,
        "alt_km": 786.785126557379,
        "timestamp": "2025-12-11T10:53:16.285198+00:00",
        "meta_object_name": "COSMOS 2251 DEB",
        "meta_object_id": "1993-036ABH",
        "meta_epoch": "2025-12-10T07:44:16.027008",
        "meta_mean_motion": 14.36962335,
        "meta_eccentricity": 0.0024056,
        "meta_inclination": 74.0356,
        "meta_ra_of_asc_node": 301.3836,
        "meta_arg_of_pericenter": 17.6421,
        "meta_mean_anomaly": 136.2189,
        "meta_ephemeris_type": 0,
        "meta_classification_type": "U",
        "meta_norad_cat_id": 34818,
        "meta_element_set_no": 999,
        "meta_rev_at_epoch": 87335,
        "meta_bstar": 0.0003859,
        "meta_mean_motion_dot": 1.121e-05,
        "meta_mean_motion_ddot": 0,
        "tle_line1": "1 34818U 93036ABH 25344.32240772  .00001121  00000+0  38590-3 0  9992",
        "tle_line2": "2 34818  74.0356 301.3836 0024056  17.6421 136.2189 14.36962335873351"
      },
      "geometry": {
        "type": "Point",
        "coordinates": [
          148.10293373430346,
          -59.28004669345198
        ]
      }
    },
    {
      "type": "Feature",
      "properties": {
        "norad_id": 34819,
        "name": "COSMOS 2251 DEB",
        "group": "cosmos-2251-debris",
        "lat": 34.90196029983463,
        "lon": 156.66617311459544,
        "alt_km": 688.1835180658773,
        "timestamp": "2025-12-11T10:53:16.285209+00:00",
        "meta_object_name": "COSMOS 2251 DEB",
        "meta_object_id": "1993-036ABJ",
        "meta_epoch": "2025-12-09T21:41:51.224640",
        "meta_mean_motion": 14.63892789,
        "meta_eccentricity": 0.00157861,
        "meta_inclination": 74.0186,
        "meta_ra_of_asc_node": 148.1101,
        "meta_arg_of_pericenter": 242.0271,
        "meta_mean_anomaly": 271.3932,
        "meta_ephemeris_type": 0,
        "meta_classification_type": "U",
        "meta_norad_cat_id": 34819,
        "meta_element_set_no": 999,
        "meta_rev_at_epoch": 88187,
        "meta_bstar": 0.0022468866,
        "meta_mean_motion_dot": 0.00011759,
        "meta_mean_motion_ddot": 0,
        "tle_line1": "1 34819U 93036ABJ 25343.90406510  .00011759  00000+0  22469-2 0  9995",
        "tle_line2": "2 34819  74.0186 148.1101 0015786 242.0271 271.3932 14.63892789881870"
      },
      "geometry": {
        "type": "Point",
        "coordinates": [
          156.66617311459544,
          34.90196029983463
        ]
      }
    },
    {
      "type": "Feature",
      "properties": {
        "norad_id": 34823,
        "name": "COSMOS 2251 DEB",
        "group": "cosmos-2251-debris",
        "lat": 52.86799696804721,
        "lon": -97.48973464484375,
        "alt_km": 658.0696220292375,
        "timestamp": "2025-12-11T10:53:16.285220+00:00",
        "meta_object_name": "COSMOS 2251 DEB",
        "meta_object_id": "1993-036ABN",
        "meta_epoch": "2025-12-10T14:30:29.359008",
        "meta_mean_motion": 14.54904355,
        "meta_eccentricity": 0.0154887,
        "meta_inclination": 74.0414,
        "meta_ra_of_asc_node": 106.322,
        "meta_arg_of_pericenter": 191.6219,
        "meta_mean_anomaly": 168.1356,
        "meta_ephemeris_type": 0,
        "meta_classification_type": "U",
        "meta_norad_cat_id": 34823,
        "meta_element_set_no": 999,
        "meta_rev_at_epoch": 88350,
        "meta_bstar": 0.0013618,
        "meta_mean_motion_dot": 6.85e-05,
        "meta_mean_motion_ddot": 0,
        "tle_line1": "1 34823U 93036ABN 25344.60450647  .00006850  00000+0  13618-2 0  9990",
        "tle_line2": "2 34823  74.0414 106.3220 0154887 191.6219 168.1356 14.54904355883502"
      },
      "geometry": {
        "type": "Point",
        "coordinates": [
          -97.48973464484375,
          52.86799696804721
        ]
      }
    },
    {
      "type": "Feature",
      "properties": {
        "norad_id": 34845,
        "name": "COSMOS 2251 DEB",
        "group": "cosmos-2251-debris",
        "lat": 42.16217773833518,
        "lon": -44.28463307893213,
        "alt_km": 751.2352859041384,
        "timestamp": "2025-12-11T10:53:16.285230+00:00",
        "meta_object_name": "COSMOS 2251 DEB",
        "meta_object_id": "1993-036ABP",
        "meta_epoch": "2025-12-09T20:04:05.418048",
        "meta_mean_motion": 14.45850049,
        "meta_eccentricity": 0.00222586,
        "meta_inclination": 74.0237,
        "meta_ra_of_asc_node": 153.7694,
        "meta_arg_of_pericenter": 315.2139,
        "meta_mean_anomaly": 44.7222,
        "meta_ephemeris_type": 0,
        "meta_classification_type": "U",
        "meta_norad_cat_id": 34845,
        "meta_element_set_no": 999,
        "meta_rev_at_epoch": 87424,
        "meta_bstar": 0.00046671234,
        "meta_mean_motion_dot": 1.636e-05,
        "meta_mean_motion_ddot": 0,
        "tle_line1": "1 34845U 93036ABP 25343.83617382  .00001636  00000+0  46671-3 0  9992",
        "tle_line2": "2 34845  74.0237 153.7694 0022258 315.2139  44.7222 14.45850049874243"
      },
      "geometry": {
        "type": "Point",
        "coordinates": [
          -44.28463307893213,
          42.16217773833518
        ]
      }
    }
  ]
}